STARS (KUKAI)           
1 33498U 09002G   26195.84582959  .00001630  00000+0  15112-3 0  9993
2 33498  98.1553 144.2883 0009814  80.4239 279.8089 14.95924415942617
KKS-1 (KISEKI)          
1 33499U 09002H   26195.84964880  .00000621  00000+0  82917-4 0  9998
2 33499  98.1174 118.7302 0007400 190.1737 169.9327 14.83188731940296
UK-DMC 2                
1 35683U 09041C   26195.81577168  .00001003  00000+0  15257-3 0  9991
2 35683  97.8865 330.1120 0001562 100.5277 259.6108 14.76096068910644
OCEANSAT-2              
1 35931U 09051A   26195.86466520 -.00000103  00000+0 -44456-4 0  9998
2 35931  98.2320 179.9528 0017320 154.4338 205.7688 13.99656019883205
SWISSCUBE               
1 35932U 09051B   26195.74040392  .00000468  00000+0  10206-3 0  9998
2 35932  98.4008 104.1063 0007823 120.2894 239.9082 14.62530263893188
BEESAT-1                
1 35933U 09051C   26195.69579757  .00000389  00000+0  87927-4 0  9992
2 35933  98.3936 103.6385 0006093 131.1262 229.0465 14.61761410893204
ITUPSAT1                
1 35935U 09051E   26195.71080867  .00000360  00000+0  84350-4 0  9992
2 35935  98.4019 102.8162 0008055 144.4895 215.6843 14.60478385892757
DMSP 5D-3 F18 (USA 210) 
1 35951U 09057A   26195.86160843  .00000156  00000+0  10377-3 0  9995
2 35951  98.9056 176.5730 0011205 166.4092 193.7384 14.14911469863505
PROBA-2                 
1 36037U 09059B   26195.47551579  .00000076  00000+0  28226-4 0  9994
2 36037  98.2458  18.4511 0012984 190.9949 169.0966 14.54873530885493
YAOGAN-7                
1 36110U 09069A   26195.64219641  .00000212  00000+0  36592-4 0  9994
2 36110  98.0034  81.3353 0023549 313.2260  46.6983 14.78035216893687
XIWANG-1 (HOPE-1)       
1 36122U 09072B   26195.83155965  .00000260  00000+0  79649-3 0  9992
2 36122 100.4033 149.2239 0007550 165.4885 194.6446 13.16441439796643
COSMOS 2463             
1 36519U 10017A   26195.62831977  .00000042  00000+0  29100-4 0  9990
2 36519  82.9583 229.5438 0037317  55.4282  59.4610 13.71667178811698
CARTOSAT-2B             
1 36795U 10035A   26195.88175043 -.00000183  00000+0 -17814-4 0  9996
2 36795  97.9944 246.2516 0012564 100.0389 260.2240 14.78615142863944
TISAT 1                 
1 36799U 10035E   26195.80674390  .00011961  00000+0  38103-3 0  9998
2 36799  98.0714 144.8302 0004489 120.8068 239.3614 15.32722087871930
YAOGAN-10               
1 36834U 10038A   26195.91443382  .00001251  00000+0  15143-3 0  9998
2 36834  97.8968 219.0973 0001649  84.4397  38.5032 14.85429481861326
SHIJIAN-6 04B (SJ-6 04B)
1 37180U 10051B   26195.85217819 -.00000050  00000+0  91268-6 0  9997
2 37180  97.8733 201.5583 0007672 213.1398 146.9345 14.99383195859827
FENGYUN 3B              
1 37214U 10059A   26195.89473704 -.00000270  00000+0 -11629-3 0  9999
2 37214  98.9611 242.0243 0023155 107.2845   8.5324 14.14846244811340
COSMO-SKYMED 4          
1 37216U 10060A   26195.85302501  .00000117  00000+0  21291-4 0  9990
2 37216  97.8886  19.0526 0001473  85.1208 275.0173 14.82147915848668
O/OREOS (USA 219)       
1 37224U 10062C   26195.65266082  .00001047  00000+0  10439-3 0  9996
2 37224  71.9697  18.1178 0013944   6.1523 353.9816 14.93850312120748
RESOURCESAT-2           
1 37387U 11015A   26195.81984825 -.00000002  00000+0  19471-4 0  9992
2 37387  98.7632 263.0689 0011522 172.1247 188.0113 14.21599481790107
YOUTHSAT                
1 37388U 11015B   26195.87965529  .00000072  00000+0  47795-4 0  9995
2 37388  98.3702 168.6879 0013183 260.2418 163.4642 14.25640528791587
APRIZESAT 6             
1 37793U 11044F   26195.72035222  .00000369  00000+0  59580-4 0  9993
2 37793  98.2339 106.7799 0043104 359.7738  61.0492 14.76956350801218
JUGNU                   
1 37839U 11058B   26195.20044442  .00000341  00000+0  38942-4 0  9995
2 37839  19.9593 144.3072 0018538  15.5090 113.9676 14.13783328762855
SRMSAT                  
1 37841U 11058D   26195.29196898  .00000343  00000+0  42066-4 0  9994
2 37841  19.9711 255.4136 0011787 141.3057 265.6885 14.11580990761657
SUOMI NPP               
1 37849U 11061A   26195.83005801  .00000000  00000+0  21224-4 0  9992
2 37849  98.7955 136.5181 0000733 216.4242 143.6885 14.19522530762366
YAOGAN-12               
1 37875U 11066B   26195.85840289  .00001520  00000+0  60075-4 0  9990
2 37875  97.1126 233.1279 0010850 123.1035 237.1248 15.26888278816269
